STARLINK-36317          
1 67736U 26026R   26060.44149056  .00104487  00000+0  53892-3 0  9995
2 67736  97.2868 114.7235 0001134  79.8600 280.2796 15.80848928  2833
STARLINK-36330          
1 67737U 26026S   26060.43872526  .00185340  00000+0  94496-3 0  9992
2 67737  97.2865 114.7271 0000744  90.5450 269.5903 15.80884884  2831
STARLINK-36327          
1 67738U 26026T   26060.43732088  .00102696  00000+0  52958-3 0  9991
2 67738  97.2867 114.7294 0001149 115.0404 245.0984 15.80858127  2830
STARLINK-36329          
1 67739U 26026U   26060.42886103  .00125515  00000+0  64561-3 0  9997
2 67739  97.2866 114.7373 0001547 101.3882 258.7560 15.80850424  2831
STARLINK-36737          
1 67740U 26026V   26060.43578257  .00167609  00000+0  85652-3 0  9992
2 67740  97.2867 114.7303 0001384 110.9425 249.1991 15.80881078  2836
STARLINK-36740          
1 67741U 26026W   26060.43069323  .00092840  00000+0  48002-3 0  9994
2 67741  97.2863 114.7360 0001474 111.8448 248.2977 15.80827816  2835
STARLINK-36693          
1 67742U 26026X   26060.43461434  .00088063  00000+0  45512-3 0  9999
2 67742  97.2865 114.7322 0001374 120.0815 240.0590 15.80851902  2839
STARLINK-36717          
1 67743U 26026Y   26060.43185513  .00107640  00000+0  55475-3 0  9993
2 67743  97.2865 114.7346 0001519 116.6237 243.5187 15.80856539  2837
STARLINK-36692          
1 67744U 26026Z   26060.43314357  .00127494  00000+0  65547-3 0  9994
2 67744  97.2865 114.7337 0001285 102.6483 257.4929 15.80855892  2835
2026-027A               
1 67746U 26027A   26060.46158962  .00009599  00000+0  48125-3 0  9996
2 67746  97.4888 189.5633 0009636 223.7633 136.2838 15.17517897  2612
2026-027B               
1 67747U 26027B   26060.46044409  .00009610  00000+0  48037-3 0  9993
2 67747  97.4882 189.5635 0009768 226.3848 133.6576 15.17618432  2619
2026-027C               
1 67748U 26027C   26060.45920452  .00006991  00000+0  34985-3 0  9990
2 67748  97.4894 189.5679 0010121 229.1859 130.8497 15.17681123  2617
