CCSDS_OMM_VERS = 2.0
CREATION_DATE  = 
ORIGINATOR     = 

OBJECT_NAME    = STARLINK-36317
OBJECT_ID      = 2026-026R
CENTER_NAME    = EARTH
REF_FRAME      = TEME
TIME_SYSTEM    = UTC
MEAN_ELEMENT_THEORY = SGP/SGP4

EPOCH          = 2026-03-01T10:35:44.784384
MEAN_MOTION    = 15.80848928
ECCENTRICITY   = .0001134
INCLINATION    = 97.2868
RA_OF_ASC_NODE = 114.7235
ARG_OF_PERICENTER = 79.8600
MEAN_ANOMALY   = 280.2796

EPHEMERIS_TYPE = 0
CLASSIFICATION_TYPE = U
NORAD_CAT_ID   = 67736
ELEMENT_SET_NO = 999
REV_AT_EPOCH   = 283
BSTAR          = .53892E-3
MEAN_MOTION_DOT = .104487E-2
MEAN_MOTION_DDOT = 0

CCSDS_OMM_VERS = 2.0
CREATION_DATE  = 
ORIGINATOR     = 

OBJECT_NAME    = STARLINK-36330
OBJECT_ID      = 2026-026S
CENTER_NAME    = EARTH
REF_FRAME      = TEME
TIME_SYSTEM    = UTC
MEAN_ELEMENT_THEORY = SGP/SGP4

EPOCH          = 2026-03-01T10:31:45.862464
MEAN_MOTION    = 15.80884884
ECCENTRICITY   = .0000744
INCLINATION    = 97.2865
RA_OF_ASC_NODE = 114.7271
ARG_OF_PERICENTER = 90.5450
MEAN_ANOMALY   = 269.5903

EPHEMERIS_TYPE = 0
CLASSIFICATION_TYPE = U
NORAD_CAT_ID   = 67737
ELEMENT_SET_NO = 999
REV_AT_EPOCH   = 283
BSTAR          = .94496E-3
MEAN_MOTION_DOT = .18534E-2
MEAN_MOTION_DDOT = 0

CCSDS_OMM_VERS = 2.0
CREATION_DATE  = 
ORIGINATOR     = 

OBJECT_NAME    = STARLINK-36327
OBJECT_ID      = 2026-026T
CENTER_NAME    = EARTH
REF_FRAME      = TEME
TIME_SYSTEM    = UTC
MEAN_ELEMENT_THEORY = SGP/SGP4

EPOCH          = 2026-03-01T10:29:44.524032
MEAN_MOTION    = 15.80858127
ECCENTRICITY   = .0001149
INCLINATION    = 97.2867
RA_OF_ASC_NODE = 114.7294
ARG_OF_PERICENTER = 115.0404
MEAN_ANOMALY   = 245.0984

EPHEMERIS_TYPE = 0
CLASSIFICATION_TYPE = U
NORAD_CAT_ID   = 67738
ELEMENT_SET_NO = 999
REV_AT_EPOCH   = 283
BSTAR          = .52958E-3
MEAN_MOTION_DOT = .102696E-2
MEAN_MOTION_DDOT = 0

CCSDS_OMM_VERS = 2.0
CREATION_DATE  = 
ORIGINATOR     = 

OBJECT_NAME    = STARLINK-36329
OBJECT_ID      = 2026-026U
CENTER_NAME    = EARTH
REF_FRAME      = TEME
TIME_SYSTEM    = UTC
MEAN_ELEMENT_THEORY = SGP/SGP4

EPOCH          = 2026-03-01T10:17:33.592992
MEAN_MOTION    = 15.80850424
ECCENTRICITY   = .0001547
INCLINATION    = 97.2866
RA_OF_ASC_NODE = 114.7373
ARG_OF_PERICENTER = 101.3882
MEAN_ANOMALY   = 258.7560

EPHEMERIS_TYPE = 0
CLASSIFICATION_TYPE = U
NORAD_CAT_ID   = 67739
ELEMENT_SET_NO = 999
REV_AT_EPOCH   = 283
BSTAR          = .64561E-3
MEAN_MOTION_DOT = .125515E-2
MEAN_MOTION_DDOT = 0

CCSDS_OMM_VERS = 2.0
CREATION_DATE  = 
ORIGINATOR     = 

OBJECT_NAME    = STARLINK-36737
OBJECT_ID      = 2026-026V
CENTER_NAME    = EARTH
REF_FRAME      = TEME
TIME_SYSTEM    = UTC
MEAN_ELEMENT_THEORY = SGP/SGP4

EPOCH          = 2026-03-01T10:27:31.614048
MEAN_MOTION    = 15.80881078
ECCENTRICITY   = .0001384
INCLINATION    = 97.2867
RA_OF_ASC_NODE = 114.7303
ARG_OF_PERICENTER = 110.9425
MEAN_ANOMALY   = 249.1991

EPHEMERIS_TYPE = 0
CLASSIFICATION_TYPE = U
NORAD_CAT_ID   = 67740
ELEMENT_SET_NO = 999
REV_AT_EPOCH   = 283
BSTAR          = .85652E-3
MEAN_MOTION_DOT = .167609E-2
MEAN_MOTION_DDOT = 0

CCSDS_OMM_VERS = 2.0
CREATION_DATE  = 
ORIGINATOR     = 

OBJECT_NAME    = STARLINK-36740
OBJECT_ID      = 2026-026W
CENTER_NAME    = EARTH
REF_FRAME      = TEME
TIME_SYSTEM    = UTC
MEAN_ELEMENT_THEORY = SGP/SGP4

EPOCH          = 2026-03-01T10:20:11.895072
MEAN_MOTION    = 15.80827816
ECCENTRICITY   = .0001474
INCLINATION    = 97.2863
RA_OF_ASC_NODE = 114.7360
ARG_OF_PERICENTER = 111.8448
MEAN_ANOMALY   = 248.2977

EPHEMERIS_TYPE = 0
CLASSIFICATION_TYPE = U
NORAD_CAT_ID   = 67741
ELEMENT_SET_NO = 999
REV_AT_EPOCH   = 283
BSTAR          = .48002E-3
MEAN_MOTION_DOT = .9284E-3
MEAN_MOTION_DDOT = 0

CCSDS_OMM_VERS = 2.0
CREATION_DATE  = 
ORIGINATOR     = 

OBJECT_NAME    = STARLINK-36693
OBJECT_ID      = 2026-026X
CENTER_NAME    = EARTH
REF_FRAME      = TEME
TIME_SYSTEM    = UTC
MEAN_ELEMENT_THEORY = SGP/SGP4

EPOCH          = 2026-03-01T10:25:50.678976
MEAN_MOTION    = 15.80851902
ECCENTRICITY   = .0001374
INCLINATION    = 97.2865
RA_OF_ASC_NODE = 114.7322
ARG_OF_PERICENTER = 120.0815
MEAN_ANOMALY   = 240.0590

EPHEMERIS_TYPE = 0
CLASSIFICATION_TYPE = U
NORAD_CAT_ID   = 67742
ELEMENT_SET_NO = 999
REV_AT_EPOCH   = 283
BSTAR          = .45512E-3
MEAN_MOTION_DOT = .88063E-3
MEAN_MOTION_DDOT = 0

CCSDS_OMM_VERS = 2.0
CREATION_DATE  = 
ORIGINATOR     = 

OBJECT_NAME    = STARLINK-36717
OBJECT_ID      = 2026-026Y
CENTER_NAME    = EARTH
REF_FRAME      = TEME
TIME_SYSTEM    = UTC
MEAN_ELEMENT_THEORY = SGP/SGP4

EPOCH          = 2026-03-01T10:21:52.283232
MEAN_MOTION    = 15.80856539
ECCENTRICITY   = .0001519
INCLINATION    = 97.2865
RA_OF_ASC_NODE = 114.7346
ARG_OF_PERICENTER = 116.6237
MEAN_ANOMALY   = 243.5187

EPHEMERIS_TYPE = 0
CLASSIFICATION_TYPE = U
NORAD_CAT_ID   = 67743
ELEMENT_SET_NO = 999
REV_AT_EPOCH   = 283
BSTAR          = .55475E-3
MEAN_MOTION_DOT = .10764E-2
MEAN_MOTION_DDOT = 0

CCSDS_OMM_VERS = 2.0
CREATION_DATE  = 
ORIGINATOR     = 

OBJECT_NAME    = STARLINK-36692
OBJECT_ID      = 2026-026Z
CENTER_NAME    = EARTH
REF_FRAME      = TEME
TIME_SYSTEM    = UTC
MEAN_ELEMENT_THEORY = SGP/SGP4

EPOCH          = 2026-03-01T10:23:43.604448
MEAN_MOTION    = 15.80855892
ECCENTRICITY   = .0001285
INCLINATION    = 97.2865
RA_OF_ASC_NODE = 114.7337
ARG_OF_PERICENTER = 102.6483
MEAN_ANOMALY   = 257.4929

EPHEMERIS_TYPE = 0
CLASSIFICATION_TYPE = U
NORAD_CAT_ID   = 67744
ELEMENT_SET_NO = 999
REV_AT_EPOCH   = 283
BSTAR          = .65547E-3
MEAN_MOTION_DOT = .127494E-2
MEAN_MOTION_DDOT = 0

CCSDS_OMM_VERS = 2.0
CREATION_DATE  = 
ORIGINATOR     = 

OBJECT_NAME    = 2026-027A
OBJECT_ID      = 2026-027A
CENTER_NAME    = EARTH
REF_FRAME      = TEME
TIME_SYSTEM    = UTC
MEAN_ELEMENT_THEORY = SGP/SGP4

EPOCH          = 2026-03-01T11:04:41.343168
MEAN_MOTION    = 15.17517897
ECCENTRICITY   = .0009636
INCLINATION    = 97.4888
RA_OF_ASC_NODE = 189.5633
ARG_OF_PERICENTER = 223.7633
MEAN_ANOMALY   = 136.2838

EPHEMERIS_TYPE = 0
CLASSIFICATION_TYPE = U
NORAD_CAT_ID   = 67746
ELEMENT_SET_NO = 999
REV_AT_EPOCH   = 261
BSTAR          = .48125E-3
MEAN_MOTION_DOT = .9599E-4
MEAN_MOTION_DDOT = 0

CCSDS_OMM_VERS = 2.0
CREATION_DATE  = 
ORIGINATOR     = 

OBJECT_NAME    = 2026-027B
OBJECT_ID      = 2026-027B
CENTER_NAME    = EARTH
REF_FRAME      = TEME
TIME_SYSTEM    = UTC
MEAN_ELEMENT_THEORY = SGP/SGP4

EPOCH          = 2026-03-01T11:03:02.369376
MEAN_MOTION    = 15.17618432
ECCENTRICITY   = .0009768
INCLINATION    = 97.4882
RA_OF_ASC_NODE = 189.5635
ARG_OF_PERICENTER = 226.3848
MEAN_ANOMALY   = 133.6576

EPHEMERIS_TYPE = 0
CLASSIFICATION_TYPE = U
NORAD_CAT_ID   = 67747
ELEMENT_SET_NO = 999
REV_AT_EPOCH   = 261
BSTAR          = .48037E-3
MEAN_MOTION_DOT = .961E-4
MEAN_MOTION_DDOT = 0

CCSDS_OMM_VERS = 2.0
CREATION_DATE  = 
ORIGINATOR     = 

OBJECT_NAME    = 2026-027C
OBJECT_ID      = 2026-027C
CENTER_NAME    = EARTH
REF_FRAME      = TEME
TIME_SYSTEM    = UTC
MEAN_ELEMENT_THEORY = SGP/SGP4

EPOCH          = 2026-03-01T11:01:15.270528
MEAN_MOTION    = 15.17681123
ECCENTRICITY   = .0010121
INCLINATION    = 97.4894
RA_OF_ASC_NODE = 189.5679
ARG_OF_PERICENTER = 229.1859
MEAN_ANOMALY   = 130.8497

EPHEMERIS_TYPE = 0
CLASSIFICATION_TYPE = U
NORAD_CAT_ID   = 67748
ELEMENT_SET_NO = 999
REV_AT_EPOCH   = 261
BSTAR          = .34985E-3
MEAN_MOTION_DOT = .6991E-4
MEAN_MOTION_DDOT = 0

